start=new Date('2022-06-12T00:00:00.000Z').valueOf();
sats=[{"REF_FRAME":"TEME","TIME_SYSTEM":"UTC","ELEMENT_SET_NO":"999","MEAN_MOTION_DDOT":"0.0000000000000","APOAPSIS":"433.796","DECAY_DATE":null,"MEAN_MOTION":"15.44423537","MEAN_ELEMENT_THEORY":"SGP4","EPHEMERIS_TYPE":"0","FILE":"3492149","PERIAPSIS":"432.353","LAUNCH_DATE":"2022-05-14","SITE":"AFETR","OBJECT_NAME":"STARLINK-3980","CLASSIFICATION_TYPE":"U","BSTAR":"-0.01942800000000","SEMIMAJOR_AXIS":"6811.209","REV_AT_EPOCH":"130","CENTER_NAME":"EARTH","OBJECT_TYPE":"PAYLOAD","COUNTRY_CODE":"US","INCLINATION":"53.2172","MEAN_MOTION_DOT":"-0.00833467","RCS_SIZE":"LARGE","GP_ID":"205930469","RA_OF_ASC_NODE":"302.3749","EPOCH":"2022-06-11T22:00:00.999936","PERIOD":"93.239","OBJECT_ID":"2022-052P","ARG_OF_PERICENTER":"83.9799","MEAN_ANOMALY":"272.0671","NORAD_CAT_ID":"52611","ECCENTRICITY":"0.00010590","TLE_LINE2":"2 52611  53.2172 302.3749 0001059  83.9799 272.0671 15.44423537  1302","TLE_LINE1":"1 52611U 22052P   22162.91667824 -.00833467  00000-0 -19428-1 0  9990"},{"LAUNCH_DATE":"2022-05-14","SITE":"AFETR","CLASSIFICATION_TYPE":"U","OBJECT_NAME":"STARLINK-4002","PERIAPSIS":"385.538","FILE":"3492149","DECAY_DATE":null,"APOAPSIS":"386.933","MEAN_MOTION_DDOT":"0.0000000000000","EPHEMERIS_TYPE":"0","MEAN_ELEMENT_THEORY":"SGP4","MEAN_MOTION":"15.60492584","ELEMENT_SET_NO":"999","TIME_SYSTEM":"UTC","REF_FRAME":"TEME","REV_AT_EPOCH":"130","SEMIMAJOR_AXIS":"6764.370","BSTAR":"-0.00930180000000","RA_OF_ASC_NODE":"301.0800","GP_ID":"205930261","RCS_SIZE":"LARGE","COUNTRY_CODE":"US","MEAN_MOTION_DOT":"-0.00714990","INCLINATION":"53.2173","CENTER_NAME":"EARTH","OBJECT_TYPE":"PAYLOAD","TLE_LINE1":"1 52612U 22052Q   22162.91667824 -.00714990  00000-0 -93018-2 0  9998","ECCENTRICITY":"0.00010310","TLE_LINE2":"2 52612  53.2173 301.0800 0001031  81.6208 258.8719 15.60492584  1309","MEAN_ANOMALY":"258.8719","NORAD_CAT_ID":"52612","OBJECT_ID":"2022-052Q","ARG_OF_PERICENTER":"81.6208","EPOCH":"2022-06-11T22:00:00.999936","PERIOD":"92.279"},{"BSTAR":"0.00033903000000","SEMIMAJOR_AXIS":"6727.878","REV_AT_EPOCH":"130","REF_FRAME":"TEME","ELEMENT_SET_NO":"999","TIME_SYSTEM":"UTC","MEAN_MOTION":"15.73206044","MEAN_ELEMENT_THEORY":"SGP4","EPHEMERIS_TYPE":"0","MEAN_MOTION_DDOT":"0.0000000000000","DECAY_DATE":null,"APOAPSIS":"350.649","PERIAPSIS":"348.837","FILE":"3492149","SITE":"AFETR","OBJECT_NAME":"STARLINK-3921","LAUNCH_DATE":"2022-05-14","CLASSIFICATION_TYPE":"U","PERIOD":"91.533","EPOCH":"2022-06-11T22:00:00.999936","OBJECT_ID":"2022-052R","ARG_OF_PERICENTER":"44.5916","MEAN_ANOMALY":"129.0653","NORAD_CAT_ID":"52613","TLE_LINE2":"2 52613  53.2123 300.6479 0001347  44.5916 129.0653 15.73206044  1300","ECCENTRICITY":"0.00013470","TLE_LINE1":"1 52613U 22052R   22162.91667824  .00047241  00000-0  33903-3 0  9993","OBJECT_TYPE":"PAYLOAD","CENTER_NAME":"EARTH","INCLINATION":"53.2123","MEAN_MOTION_DOT":"0.00047241","COUNTRY_CODE":"US","RCS_SIZE":"LARGE","GP_ID":"205930577","RA_OF_ASC_NODE":"300.6479"},{"TLE_LINE1":"1 52614U 22052S   22162.91667824  .00007894  00000-0  60661-4 0  9996","OBJECT_ID":"2022-052S","ARG_OF_PERICENTER":"42.1861","PERIOD":"91.534","EPOCH":"2022-06-11T22:00:00.999936","TLE_LINE2":"2 52614  53.2125 300.6507 0001407  42.1861 130.9156 15.73180406  1307","ECCENTRICITY":"0.00014070","NORAD_CAT_ID":"52614","MEAN_ANOMALY":"130.9156","RCS_SIZE":"LARGE","RA_OF_ASC_NODE":"300.6507","GP_ID":"205930366","CENTER_NAME":"EARTH","OBJECT_TYPE":"PAYLOAD","MEAN_MOTION_DOT":"0.00007894","INCLINATION":"53.2125","COUNTRY_CODE":"US","SEMIMAJOR_AXIS":"6727.951","REV_AT_EPOCH":"130","BSTAR":"0.00006066100000","EPHEMERIS_TYPE":"0","MEAN_ELEMENT_THEORY":"SGP4","MEAN_MOTION":"15.73180406","APOAPSIS":"350.763","DECAY_DATE":null,"MEAN_MOTION_DDOT":"0.0000000000000","SITE":"AFETR","LAUNCH_DATE":"2022-05-14","OBJECT_NAME":"STARLINK-3982","CLASSIFICATION_TYPE":"U","FILE":"3492149","PERIAPSIS":"348.869","REF_FRAME":"TEME","ELEMENT_SET_NO":"999","TIME_SYSTEM":"UTC"},{"MEAN_ANOMALY":"264.1958","NORAD_CAT_ID":"52615","ECCENTRICITY":"0.00010490","TLE_LINE2":"2 52615  53.2172 302.3838 0001049  96.5175 264.1958 15.44636946  1313","EPOCH":"2022-06-11T22:00:00.999936","PERIOD":"93.226","OBJECT_ID":"2022-052T","ARG_OF_PERICENTER":"96.5175","TLE_LINE1":"1 52615U 22052T   22162.91667824 -.00833210  00000-0 -19280-1 0  9996","COUNTRY_CODE":"US","MEAN_MOTION_DOT":"-0.00833210","INCLINATION":"53.2172","OBJECT_TYPE":"PAYLOAD","CENTER_NAME":"EARTH","GP_ID":"205930126","RA_OF_ASC_NODE":"302.3838","RCS_SIZE":"LARGE","BSTAR":"-0.01928000000000","REV_AT_EPOCH":"131","SEMIMAJOR_AXIS":"6810.582","TIME_SYSTEM":"UTC","ELEMENT_SET_NO":"999","REF_FRAME":"TEME","FILE":"3492149","PERIAPSIS":"431.733","LAUNCH_DATE":"2022-05-14","SITE":"AFETR","CLASSIFICATION_TYPE":"U","OBJECT_NAME":"STARLINK-4011","MEAN_MOTION_DDOT":"0.0000000000000","DECAY_DATE":null,"APOAPSIS":"433.161","MEAN_MOTION":"15.44636946","EPHEMERIS_TYPE":"0","MEAN_ELEMENT_THEORY":"SGP4"},{"BSTAR":"0.00007541300000","REV_AT_EPOCH":"130","SEMIMAJOR_AXIS":"6727.932","ELEMENT_SET_NO":"999","TIME_SYSTEM":"UTC","REF_FRAME":"TEME","LAUNCH_DATE":"2022-05-14","SITE":"AFETR","CLASSIFICATION_TYPE":"U","OBJECT_NAME":"STARLINK-4015","FILE":"3492149","PERIAPSIS":"348.748","MEAN_ELEMENT_THEORY":"SGP4","EPHEMERIS_TYPE":"0","MEAN_MOTION":"15.73187247","APOAPSIS":"350.845","DECAY_DATE":null,"MEAN_MOTION_DDOT":"0.0000000000000","TLE_LINE2":"2 52616  53.2125 300.6486 0001558  49.5121 124.7706 15.73187247  1304","ECCENTRICITY":"0.00015580","MEAN_ANOMALY":"124.7706","NORAD_CAT_ID":"52616","OBJECT_ID":"2022-052U","ARG_OF_PERICENTER":"49.5121","PERIOD":"91.534","EPOCH":"2022-06-11T22:00:00.999936","TLE_LINE1":"1 52616U 22052U   22162.91667824  .00009970  00000-0  75413-4 0  9996","INCLINATION":"53.2125","MEAN_MOTION_DOT":"0.00009970","COUNTRY_CODE":"US","OBJECT_TYPE":"PAYLOAD","CENTER_NAME":"EARTH","RA_OF_ASC_NODE":"300.6486","GP_ID":"205929916","RCS_SIZE":"LARGE"},{"EPOCH":"2022-06-11T22:00:00.999936","PERIOD":"91.533","OBJECT_ID":"2022-052V","ARG_OF_PERICENTER":"43.8208","NORAD_CAT_ID":"52617","MEAN_ANOMALY":"133.4340","TLE_LINE2":"2 52617  53.2123 300.6407 0001393  43.8208 133.4340 15.73206626  1300","ECCENTRICITY":"0.00013930","TLE_LINE1":"1 52617U 22052V   22162.91667824 -.00006288  00000-0 -40405-4 0  9991","OBJECT_TYPE":"PAYLOAD","CENTER_NAME":"EARTH","INCLINATION":"53.2123","MEAN_MOTION_DOT":"-0.00006288","COUNTRY_CODE":"US","RCS_SIZE":"LARGE","GP_ID":"205930653","RA_OF_ASC_NODE":"300.6407","BSTAR":"-0.00004040500000","SEMIMAJOR_AXIS":"6727.876","REV_AT_EPOCH":"130","REF_FRAME":"TEME","ELEMENT_SET_NO":"999","TIME_SYSTEM":"UTC","MEAN_MOTION":"15.73206626","EPHEMERIS_TYPE":"0","MEAN_ELEMENT_THEORY":"SGP4","MEAN_MOTION_DDOT":"0.0000000000000","DECAY_DATE":null,"APOAPSIS":"350.678","FILE":"3492149","PERIAPSIS":"348.804","SITE":"AFETR","OBJECT_NAME":"STARLINK-3996","LAUNCH_DATE":"2022-05-14","CLASSIFICATION_TYPE":"U"},{"CENTER_NAME":"EARTH","OBJECT_TYPE":"PAYLOAD","COUNTRY_CODE":"US","MEAN_MOTION_DOT":"-0.00048333","INCLINATION":"53.2125","RCS_SIZE":"LARGE","RA_OF_ASC_NODE":"300.6466","GP_ID":"205930022","ARG_OF_PERICENTER":"42.4816","OBJECT_ID":"2022-052W","EPOCH":"2022-06-11T22:00:00.999936","PERIOD":"91.533","TLE_LINE2":"2 52618  53.2125 300.6466 0001351  42.4816 132.3951 15.73209144  1306","ECCENTRICITY":"0.00013510","NORAD_CAT_ID":"52618","MEAN_ANOMALY":"132.3951","TLE_LINE1":"1 52618U 22052W   22162.91667824 -.00048333  00000-0 -34180-3 0  9991","REF_FRAME":"TEME","TIME_SYSTEM":"UTC","ELEMENT_SET_NO":"999","APOAPSIS":"350.643","DECAY_DATE":null,"MEAN_MOTION_DDOT":"0.0000000000000","MEAN_ELEMENT_THEORY":"SGP4","EPHEMERIS_TYPE":"0","MEAN_MOTION":"15.73209144","SITE":"AFETR","LAUNCH_DATE":"2022-05-14","CLASSIFICATION_TYPE":"U","OBJECT_NAME":"STARLINK-3983","FILE":"3492149","PERIAPSIS":"348.825","BSTAR":"-0.00034180000000","SEMIMAJOR_AXIS":"6727.869","REV_AT_EPOCH":"130"},{"TLE_LINE1":"1 52619U 22052X   22162.91667824 -.00049171  00000-0 -34778-3 0  9996","OBJECT_ID":"2022-052X","ARG_OF_PERICENTER":"45.2960","PERIOD":"91.532","EPOCH":"2022-06-11T22:00:00.999936","ECCENTRICITY":"0.00015050","TLE_LINE2":"2 52619  53.2125 300.6392 0001505  45.2960 132.5574 15.73212164  1306","MEAN_ANOMALY":"132.5574","NORAD_CAT_ID":"52619","RCS_SIZE":"LARGE","RA_OF_ASC_NODE":"300.6392","GP_ID":"205930470","CENTER_NAME":"EARTH","OBJECT_TYPE":"PAYLOAD","COUNTRY_CODE":"US","INCLINATION":"53.2125","MEAN_MOTION_DOT":"-0.00049171","SEMIMAJOR_AXIS":"6727.860","REV_AT_EPOCH":"130","BSTAR":"-0.00034778000000","DECAY_DATE":null,"APOAPSIS":"350.738","MEAN_MOTION_DDOT":"0.0000000000000","MEAN_ELEMENT_THEORY":"SGP4","EPHEMERIS_TYPE":"0","MEAN_MOTION":"15.73212164","SITE":"AFETR","LAUNCH_DATE":"2022-05-14","CLASSIFICATION_TYPE":"U","OBJECT_NAME":"STARLINK-3741","FILE":"3492149","PERIAPSIS":"348.713","REF_FRAME":"TEME","TIME_SYSTEM":"UTC","ELEMENT_SET_NO":"999"},{"MEAN_ELEMENT_THEORY":"SGP4","EPHEMERIS_TYPE":"0","MEAN_MOTION":"15.44869037","DECAY_DATE":null,"APOAPSIS":"432.484","MEAN_MOTION_DDOT":"0.0000000000000","SITE":"AFETR","OBJECT_NAME":"STARLINK-3975","LAUNCH_DATE":"2022-05-14","CLASSIFICATION_TYPE":"U","FILE":"3492149","PERIAPSIS":"431.046","REF_FRAME":"TEME","TIME_SYSTEM":"UTC","ELEMENT_SET_NO":"999","SEMIMAJOR_AXIS":"6809.900","REV_AT_EPOCH":"130","BSTAR":"-0.01913200000000","RCS_SIZE":"LARGE","RA_OF_ASC_NODE":"302.3957","GP_ID":"205930262","CENTER_NAME":"EARTH","OBJECT_TYPE":"PAYLOAD","INCLINATION":"53.2173","MEAN_MOTION_DOT":"-0.00833409","COUNTRY_CODE":"US","TLE_LINE1":"1 52620U 22052Y   22162.91667824 -.00833409  00000-0 -19132-1 0  9998","OBJECT_ID":"2022-052Y","ARG_OF_PERICENTER":"78.2149","EPOCH":"2022-06-11T22:00:00.999936","PERIOD":"93.212","TLE_LINE2":"2 52620  53.2173 302.3957 0001056  78.2149 285.7387 15.44869037  1301","ECCENTRICITY":"0.00010560","NORAD_CAT_ID":"52620","MEAN_ANOMALY":"285.7387"}];
